ONEWEB-0317             
1 49103U 21075AE  23059.50353407 -.00000307  00000+0 -88904-3 0  9991
2 49103  87.8936 229.9728 0001570 109.0991 251.0307 13.12443814 77172
ONEWEB-0317             
1 49103U 21075AE  23059.50353407 -.00000307  00000+0 -88904-3 0  9991
2 49103  87.8936 229.9728 0001570 109.0991 251.0307 13.12443814 78162
ONEWEB-0317             
1 49103U 21075AE  23059.88471919 -.00000322  00000+0 -92940-3 0  9993
2 49103  87.8936 229.8970 0001573 109.2842 250.8456 13.12443883 77224
ONEWEB-0317             
1 49103U 21075AE  23060.72332728 -.00000366  00000+0 -10519-2 0  9991
2 49103  87.8937 229.7303 0001591 109.2336 250.8965 13.12443665 78327
ONEWEB-0317             
1 49103U 21075AE  23060.87580225 -.00000435  00000+0 -12452-2 0  9999
2 49103  87.8939 229.7001 0001586 109.5262 250.6038 13.12442989 77358
ONEWEB-0317             
1 49103U 21075AE  23061.71441030 -.00000297  00000+0 -85991-3 0  9998
2 49103  87.8942 229.5337 0001600 109.4266 250.7035 13.12443569 77467
ONEWEB-0317             
1 49103U 21075AE  23062.40054534 -.00000143  00000+0 -43389-3 0  9999
2 49103  87.8946 229.3974 0001592 109.8540 250.2760 13.12443070 78542
ONEWEB-0317             
1 49103U 21075AE  23062.47678259 -.00000164  00000+0 -49183-3 0  9993
2 49103  87.8946 229.3823 0001598 109.7986 250.3315 13.12443191 77566
ONEWEB-0317             
1 49103U 21075AE  23062.85796962 -.00000178  00000+0 -53089-3 0  9992
2 49103  87.8946 229.3066 0001592 110.0114 250.1186 13.12442434 77616
